{
  "type": "FeatureCollection",
  "features": [
    {
      "type": "Feature",
      "properties": {
        "norad_id": 28051,
        "name": "IRS-P6 (RESOURCESAT-1)",
        "group": "resource",
        "lat": 10.578064914096993,
        "lon": -148.51985421774097,
        "alt_km": 727.0699683163675,
        "timestamp": "2025-12-15T15:53:19.534874+00:00",
        "meta_object_name": "IRS-P6 (RESOURCESAT-1)",
        "meta_object_id": "2003-046A",
        "meta_epoch": "2025-12-14T22:56:39.155136",
        "meta_mean_motion": 14.36075973,
        "meta_eccentricity": 0.00642528,
        "meta_inclination": 98.2182,
        "meta_ra_of_asc_node": 29.2603,
        "meta_arg_of_pericenter": 174.0083,
        "meta_mean_anomaly": 307.2898,
        "meta_ephemeris_type": 0,
        "meta_classification_type": "U",
        "meta_norad_cat_id": 28051,
        "meta_element_set_no": 999,
        "meta_rev_at_epoch": 15408,
        "meta_bstar": 8.2175423e-05,
        "meta_mean_motion_dot": 2.04e-06,
        "meta_mean_motion_ddot": 0,
        "tle_line1": "1 28051U 03046A   25348.95600874  .00000204  00000+0  82175-4 0  9992",
        "tle_line2": "2 28051  98.2182  29.2603 0064252 174.0083 307.2898 14.36075973154082"
      },
      "geometry": {
        "type": "Point",
        "coordinates": [
          -148.51985421774097,
          10.578064914096993
        ]
      }
    },
    {
      "type": "Feature",
      "properties": {
        "norad_id": 28220,
        "name": "SHIYAN-1 (SY-1)",
        "group": "resource",
        "lat": -68.23154046341311,
        "lon": 71.70432335129472,
        "alt_km": 484.9337542137355,
        "timestamp": "2025-12-15T15:53:19.534883+00:00",
        "meta_object_name": "SHIYAN-1 (SY-1)",
        "meta_object_id": "2004-012A",
        "meta_epoch": "2025-12-14T18:11:32.800128",
        "meta_mean_motion": 15.28207645,
        "meta_eccentricity": 0.00055195,
        "meta_inclination": 97.8938,
        "meta_ra_of_asc_node": 50.4154,
        "meta_arg_of_pericenter": 317.9561,
        "meta_mean_anomaly": 42.1253,
        "meta_ephemeris_type": 0,
        "meta_classification_type": "U",
        "meta_norad_cat_id": 28220,
        "meta_element_set_no": 999,
        "meta_rev_at_epoch": 18287,
        "meta_bstar": 0.00039784318,
        "meta_mean_motion_dot": 0.00010864,
        "meta_mean_motion_ddot": 0,
        "tle_line1": "1 28220U 04012A   25348.75801852  .00010864  00000+0  39784-3 0  9991",
        "tle_line2": "2 28220  97.8938  50.4154 0005519 317.9561  42.1253 15.28207645182874"
      },
      "geometry": {
        "type": "Point",
        "coordinates": [
          71.70432335129472,
          -68.23154046341311
        ]
      }
    },
    {
      "type": "Feature",
      "properties": {
        "norad_id": 28376,
        "name": "AURA",
        "group": "resource",
        "lat": -22.439876364335262,
        "lon": -56.63370929682342,
        "alt_km": 695.8491798996665,
        "timestamp": "2025-12-15T15:53:19.534893+00:00",
        "meta_object_name": "AURA",
        "meta_object_id": "2004-026A",
        "meta_epoch": "2025-12-14T21:54:40.659840",
        "meta_mean_motion": 14.60951585,
        "meta_eccentricity": 0.00012719,
        "meta_inclination": 98.3186,
        "meta_ra_of_asc_node": 299.1496,
        "meta_arg_of_pericenter": 93.7926,
        "meta_mean_anomaly": 266.342,
        "meta_ephemeris_type": 0,
        "meta_classification_type": "U",
        "meta_norad_cat_id": 28376,
        "meta_element_set_no": 999,
        "meta_rev_at_epoch": 13930,
        "meta_bstar": 0.00024418133,
        "meta_mean_motion_dot": 1.148e-05,
        "meta_mean_motion_ddot": 0,
        "tle_line1": "1 28376U 04026A   25348.91297060  .00001148  00000+0  24418-3 0  9999",
        "tle_line2": "2 28376  98.3186 299.1496 0001271  93.7926 266.3420 14.60951585139303"
      },
      "geometry": {
        "type": "Point",
        "coordinates": [
          -56.63370929682342,
          -22.439876364335262
        ]
      }
    },
    {
      "type": "Feature",
      "properties": {
        "norad_id": 28649,
        "name": "IRS-P5 (CARTOSAT-1)",
        "group": "resource",
        "lat": 39.76692205041971,
        "lon": -157.71719329448058,
        "alt_km": 593.6571476203499,
        "timestamp": "2025-12-15T15:53:19.534903+00:00",
        "meta_object_name": "IRS-P5 (CARTOSAT-1)",
        "meta_object_id": "2005-017A",
        "meta_epoch": "2025-12-14T21:32:23.402112",
        "meta_mean_motion": 14.90413613,
        "meta_eccentricity": 0.00011183,
        "meta_inclination": 97.5498,
        "meta_ra_of_asc_node": 15.2154,
        "meta_arg_of_pericenter": 48.5747,
        "meta_mean_anomaly": 311.5568,
        "meta_ephemeris_type": 0,
        "meta_classification_type": "U",
        "meta_norad_cat_id": 28649,
        "meta_element_set_no": 999,
        "meta_rev_at_epoch": 11636,
        "meta_bstar": 0.00019611082,
        "meta_mean_motion_dot": 1.858e-05,
        "meta_mean_motion_ddot": 0,
        "tle_line1": "1 28649U 05017A   25348.89749308  .00001858  00000+0  19611-3 0  9994",
        "tle_line2": "2 28649  97.5498  15.2154 0001118  48.5747 311.5568 14.90413613116365"
      },
      "geometry": {
        "type": "Point",
        "coordinates": [
          -157.71719329448058,
          39.76692205041971
        ]
      }
    },
    {
      "type": "Feature",
      "properties": {
        "norad_id": 28893,
        "name": "SINAH 1",
        "group": "resource",
        "lat": -35.304473303723434,
        "lon": -67.67799797447984,
        "alt_km": 686.1534331883713,
        "timestamp": "2025-12-15T15:53:19.534912+00:00",
        "meta_object_name": "SINAH 1",
        "meta_object_id": "2005-043D",
        "meta_epoch": "2025-12-14T22:30:16.651872",
        "meta_mean_motion": 14.63964877,
        "meta_eccentricity": 0.00154483,
        "meta_inclination": 98.2604,
        "meta_ra_of_asc_node": 117.5008,
        "meta_arg_of_pericenter": 130.5297,
        "meta_mean_anomaly": 229.7253,
        "meta_ephemeris_type": 0,
        "meta_classification_type": "U",
        "meta_norad_cat_id": 28893,
        "meta_element_set_no": 999,
        "meta_rev_at_epoch": 7356,
        "meta_bstar": 0.00010359399,
        "meta_mean_motion_dot": 4.94e-06,
        "meta_mean_motion_ddot": 0,
        "tle_line1": "1 28893U 05043D   25348.93769273  .00000494  00000+0  10359-3 0  9997",
        "tle_line2": "2 28893  98.2604 117.5008 0015448 130.5297 229.7253 14.63964877 73568"
      },
      "geometry": {
        "type": "Point",
        "coordinates": [
          -67.67799797447984,
          -35.304473303723434
        ]
      }
    },
    {
      "type": "Feature",
      "properties": {
        "norad_id": 29079,
        "name": "EROS B",
        "group": "resource",
        "lat": -64.56062281124653,
        "lon": -89.36024236742739,
        "alt_km": 367.62384486246356,
        "timestamp": "2025-12-15T15:53:19.534921+00:00",
        "meta_object_name": "EROS B",
        "meta_object_id": "2006-014A",
        "meta_epoch": "2025-12-14T22:00:32.669856",
        "meta_mean_motion": 15.69012512,
        "meta_eccentricity": 0.00026628,
        "meta_inclination": 97.346,
        "meta_ra_of_asc_node": 105.5954,
        "meta_arg_of_pericenter": 311.2775,
        "meta_mean_anomaly": 48.8257,
        "meta_ephemeris_type": 0,
        "meta_classification_type": "U",
        "meta_norad_cat_id": 29079,
        "meta_element_set_no": 999,
        "meta_rev_at_epoch": 9114,
        "meta_bstar": 0.0010265229,
        "meta_mean_motion_dot": 0.0011966,
        "meta_mean_motion_ddot": 0,
        "tle_line1": "1 29079U 06014A   25348.91704479  .00119660  00000+0  10265-2 0  9999",
        "tle_line2": "2 29079  97.3460 105.5954 0002662 311.2775  48.8257 15.69012512 91140"
      },
      "geometry": {
        "type": "Point",
        "coordinates": [
          -89.36024236742739,
          -64.56062281124653
        ]
      }
    },
    {
      "type": "Feature",
      "properties": {
        "norad_id": 29228,
        "name": "RESURS-DK 1",
        "group": "resource",
        "lat": -61.51452179731186,
        "lon": 51.93804353901139,
        "alt_km": 532.1021088147581,
        "timestamp": "2025-12-15T15:53:19.534931+00:00",
        "meta_object_name": "RESURS-DK 1",
        "meta_object_id": "2006-021A",
        "meta_epoch": "2025-12-14T17:58:07.820832",
        "meta_mean_motion": 15.12174507,
        "meta_eccentricity": 0.00070406,
        "meta_inclination": 69.9334,
        "meta_ra_of_asc_node": 96.6465,
        "meta_arg_of_pericenter": 257.4987,
        "meta_mean_anomaly": 102.5391,
        "meta_ephemeris_type": 0,
        "meta_classification_type": "U",
        "meta_norad_cat_id": 29228,
        "meta_element_set_no": 999,
        "meta_rev_at_epoch": 7468,
        "meta_bstar": 0.00016722153,
        "meta_mean_motion_dot": 2.786e-05,
        "meta_mean_motion_ddot": 0,
        "tle_line1": "1 29228U 06021A   25348.74870163  .00002786  00000+0  16722-3 0  9993",
        "tle_line2": "2 29228  69.9334  96.6465 0007040 257.4987 102.5391 15.12174507 74687"
      },
      "geometry": {
        "type": "Point",
        "coordinates": [
          51.93804353901139,
          -61.51452179731186
        ]
      }
    }
  ]
}